ISS (ZARYA)             
1 25544U 98067A   26058.50986825  .00012441  00000+0  23882-3 0  9991
2 25544  51.6324 122.6808 0008329 139.0697 221.0918 15.48339371554750
POISK                   
1 36086U 09060A   26058.50986825  .00012441  00000+0  23882-3 0  9999
2 36086  51.6324 122.6808 0008329 139.0697 221.0918 15.48339371554449
CSS (TIANHE)            
1 48274U 21035A   26058.66722720  .00021477  00000+0  25948-3 0  9990
2 48274  41.4656 269.1240 0006216 208.9469 151.1026 15.60189506276046
ISS (NAUKA)             
1 49044U 21066A   26058.50986825  .00012441  00000+0  23882-3 0  9997
2 49044  51.6324 122.6808 0008329 139.0697 221.0918 15.48339371554458
FREGAT DEB              
1 49271U 11037PF  26058.44495946  .00033386  00000+0  50099-1 0  9997
2 49271  51.6458 331.4699 0951448  35.8576 330.2492 12.39527055211426
CSS (WENTIAN)           
1 53239U 22085A   26058.66722720  .00021477  00000+0  25948-3 0  9993
2 53239  41.4656 269.1240 0006216 208.9469 151.1026 15.60189506275637
CSS (MENGTIAN)          
1 54216U 22143A   26058.66722720  .00021477  00000+0  25948-3 0  9994
2 54216  41.4656 269.1240 0006216 208.9469 151.1026 15.60189506275600
PROGRESS-MS 31          
1 64751U 25146A   26058.50986825  .00012441  00000+0  23882-3 0  9992
2 64751  51.6324 122.6808 0008329 139.0697 221.0918 15.48339371554461
TIANZHOU-9              
1 64786U 25149A   26058.66722720  .00021477  00000+0  25948-3 0  9996
2 64786  41.4656 269.1240 0006216 208.9469 151.1026 15.60189506275614
DRAGON CRS-33           
1 65304U 25186A   26058.25169714  .00013796  00000+0  26393-3 0  9997
2 65304  51.6322 123.9568 0008342 138.2013 221.9613 15.48333785   111
PROGRESS-MS 32          
1 65586U 25204A   26058.50986825  .00012441  00000+0  23882-3 0  9994
2 65586  51.6324 122.6808 0008329 139.0697 221.0918 15.48339371554503
CYGNUS NG-23            
1 65616U 25208A   26058.50986825  .00012441  00000+0  23882-3 0  9992
2 65616  51.6324 122.6808 0008329 139.0697 221.0918 15.48339371554518
