CCSDS_OMM_VERS = 2.0
CREATION_DATE  = 
ORIGINATOR     = 

OBJECT_NAME    = ISS (ZARYA)
OBJECT_ID      = 1998-067A
CENTER_NAME    = EARTH
REF_FRAME      = TEME
TIME_SYSTEM    = UTC
MEAN_ELEMENT_THEORY = SGP/SGP4

EPOCH          = 2026-02-27T12:14:12.616800
MEAN_MOTION    = 15.48339371
ECCENTRICITY   = .0008329
INCLINATION    = 51.6324
RA_OF_ASC_NODE = 122.6808
ARG_OF_PERICENTER = 139.0697
MEAN_ANOMALY   = 221.0918

EPHEMERIS_TYPE = 0
CLASSIFICATION_TYPE = U
NORAD_CAT_ID   = 25544
ELEMENT_SET_NO = 999
REV_AT_EPOCH   = 55475
BSTAR          = .23882E-3
MEAN_MOTION_DOT = .12441E-3
MEAN_MOTION_DDOT = 0

CCSDS_OMM_VERS = 2.0
CREATION_DATE  = 
ORIGINATOR     = 

OBJECT_NAME    = POISK
OBJECT_ID      = 2009-060A
CENTER_NAME    = EARTH
REF_FRAME      = TEME
TIME_SYSTEM    = UTC
MEAN_ELEMENT_THEORY = SGP/SGP4

EPOCH          = 2026-02-27T12:14:12.616800
MEAN_MOTION    = 15.48339371
ECCENTRICITY   = .0008329
INCLINATION    = 51.6324
RA_OF_ASC_NODE = 122.6808
ARG_OF_PERICENTER = 139.0697
MEAN_ANOMALY   = 221.0918

EPHEMERIS_TYPE = 0
CLASSIFICATION_TYPE = U
NORAD_CAT_ID   = 36086
ELEMENT_SET_NO = 999
REV_AT_EPOCH   = 55444
BSTAR          = .23882E-3
MEAN_MOTION_DOT = .12441E-3
MEAN_MOTION_DDOT = 0

CCSDS_OMM_VERS = 2.0
CREATION_DATE  = 
ORIGINATOR     = 

OBJECT_NAME    = CSS (TIANHE)
OBJECT_ID      = 2021-035A
CENTER_NAME    = EARTH
REF_FRAME      = TEME
TIME_SYSTEM    = UTC
MEAN_ELEMENT_THEORY = SGP/SGP4

EPOCH          = 2026-02-27T16:00:48.430080
MEAN_MOTION    = 15.60189506
ECCENTRICITY   = .0006216
INCLINATION    = 41.4656
RA_OF_ASC_NODE = 269.1240
ARG_OF_PERICENTER = 208.9469
MEAN_ANOMALY   = 151.1026

EPHEMERIS_TYPE = 0
CLASSIFICATION_TYPE = U
NORAD_CAT_ID   = 48274
ELEMENT_SET_NO = 999
REV_AT_EPOCH   = 27604
BSTAR          = .25948E-3
MEAN_MOTION_DOT = .21477E-3
MEAN_MOTION_DDOT = 0

CCSDS_OMM_VERS = 2.0
CREATION_DATE  = 
ORIGINATOR     = 

OBJECT_NAME    = ISS (NAUKA)
OBJECT_ID      = 2021-066A
CENTER_NAME    = EARTH
REF_FRAME      = TEME
TIME_SYSTEM    = UTC
MEAN_ELEMENT_THEORY = SGP/SGP4

EPOCH          = 2026-02-27T12:14:12.616800
MEAN_MOTION    = 15.48339371
ECCENTRICITY   = .0008329
INCLINATION    = 51.6324
RA_OF_ASC_NODE = 122.6808
ARG_OF_PERICENTER = 139.0697
MEAN_ANOMALY   = 221.0918

EPHEMERIS_TYPE = 0
CLASSIFICATION_TYPE = U
NORAD_CAT_ID   = 49044
ELEMENT_SET_NO = 999
REV_AT_EPOCH   = 55445
BSTAR          = .23882E-3
MEAN_MOTION_DOT = .12441E-3
MEAN_MOTION_DDOT = 0

CCSDS_OMM_VERS = 2.0
CREATION_DATE  = 
ORIGINATOR     = 

OBJECT_NAME    = FREGAT DEB
OBJECT_ID      = 2011-037PF
CENTER_NAME    = EARTH
REF_FRAME      = TEME
TIME_SYSTEM    = UTC
MEAN_ELEMENT_THEORY = SGP/SGP4

EPOCH          = 2026-02-27T10:40:44.497344
MEAN_MOTION    = 12.39527055
ECCENTRICITY   = .0951448
INCLINATION    = 51.6458
RA_OF_ASC_NODE = 331.4699
ARG_OF_PERICENTER = 35.8576
MEAN_ANOMALY   = 330.2492

EPHEMERIS_TYPE = 0
CLASSIFICATION_TYPE = U
NORAD_CAT_ID   = 49271
ELEMENT_SET_NO = 999
REV_AT_EPOCH   = 21142
BSTAR          = .50099E-1
MEAN_MOTION_DOT = .33386E-3
MEAN_MOTION_DDOT = 0

CCSDS_OMM_VERS = 2.0
CREATION_DATE  = 
ORIGINATOR     = 

OBJECT_NAME    = CSS (WENTIAN)
OBJECT_ID      = 2022-085A
CENTER_NAME    = EARTH
REF_FRAME      = TEME
TIME_SYSTEM    = UTC
MEAN_ELEMENT_THEORY = SGP/SGP4

EPOCH          = 2026-02-27T16:00:48.430080
MEAN_MOTION    = 15.60189506
ECCENTRICITY   = .0006216
INCLINATION    = 41.4656
RA_OF_ASC_NODE = 269.1240
ARG_OF_PERICENTER = 208.9469
MEAN_ANOMALY   = 151.1026

EPHEMERIS_TYPE = 0
CLASSIFICATION_TYPE = U
NORAD_CAT_ID   = 53239
ELEMENT_SET_NO = 999
REV_AT_EPOCH   = 27563
BSTAR          = .25948E-3
MEAN_MOTION_DOT = .21477E-3
MEAN_MOTION_DDOT = 0

CCSDS_OMM_VERS = 2.0
CREATION_DATE  = 
ORIGINATOR     = 

OBJECT_NAME    = CSS (MENGTIAN)
OBJECT_ID      = 2022-143A
CENTER_NAME    = EARTH
REF_FRAME      = TEME
TIME_SYSTEM    = UTC
MEAN_ELEMENT_THEORY = SGP/SGP4

EPOCH          = 2026-02-27T16:00:48.430080
MEAN_MOTION    = 15.60189506
ECCENTRICITY   = .0006216
INCLINATION    = 41.4656
RA_OF_ASC_NODE = 269.1240
ARG_OF_PERICENTER = 208.9469
MEAN_ANOMALY   = 151.1026

EPHEMERIS_TYPE = 0
CLASSIFICATION_TYPE = U
NORAD_CAT_ID   = 54216
ELEMENT_SET_NO = 999
REV_AT_EPOCH   = 27560
BSTAR          = .25948E-3
MEAN_MOTION_DOT = .21477E-3
MEAN_MOTION_DDOT = 0

CCSDS_OMM_VERS = 2.0
CREATION_DATE  = 
ORIGINATOR     = 

OBJECT_NAME    = PROGRESS-MS 31
OBJECT_ID      = 2025-146A
CENTER_NAME    = EARTH
REF_FRAME      = TEME
TIME_SYSTEM    = UTC
MEAN_ELEMENT_THEORY = SGP/SGP4

EPOCH          = 2026-02-27T12:14:12.616800
MEAN_MOTION    = 15.48339371
ECCENTRICITY   = .0008329
INCLINATION    = 51.6324
RA_OF_ASC_NODE = 122.6808
ARG_OF_PERICENTER = 139.0697
MEAN_ANOMALY   = 221.0918

EPHEMERIS_TYPE = 0
CLASSIFICATION_TYPE = U
NORAD_CAT_ID   = 64751
ELEMENT_SET_NO = 999
REV_AT_EPOCH   = 55446
BSTAR          = .23882E-3
MEAN_MOTION_DOT = .12441E-3
MEAN_MOTION_DDOT = 0

CCSDS_OMM_VERS = 2.0
CREATION_DATE  = 
ORIGINATOR     = 

OBJECT_NAME    = TIANZHOU-9
OBJECT_ID      = 2025-149A
CENTER_NAME    = EARTH
REF_FRAME      = TEME
TIME_SYSTEM    = UTC
MEAN_ELEMENT_THEORY = SGP/SGP4

EPOCH          = 2026-02-27T16:00:48.430080
MEAN_MOTION    = 15.60189506
ECCENTRICITY   = .0006216
INCLINATION    = 41.4656
RA_OF_ASC_NODE = 269.1240
ARG_OF_PERICENTER = 208.9469
MEAN_ANOMALY   = 151.1026

EPHEMERIS_TYPE = 0
CLASSIFICATION_TYPE = U
NORAD_CAT_ID   = 64786
ELEMENT_SET_NO = 999
REV_AT_EPOCH   = 27561
BSTAR          = .25948E-3
MEAN_MOTION_DOT = .21477E-3
MEAN_MOTION_DDOT = 0

CCSDS_OMM_VERS = 2.0
CREATION_DATE  = 
ORIGINATOR     = 

OBJECT_NAME    = DRAGON CRS-33
OBJECT_ID      = 2025-186A
CENTER_NAME    = EARTH
REF_FRAME      = TEME
TIME_SYSTEM    = UTC
MEAN_ELEMENT_THEORY = SGP/SGP4

EPOCH          = 2026-02-27T06:02:26.632896
MEAN_MOTION    = 15.48333785
ECCENTRICITY   = .00083426
INCLINATION    = 51.6322
RA_OF_ASC_NODE = 123.9568
ARG_OF_PERICENTER = 138.2013
MEAN_ANOMALY   = 221.9613

EPHEMERIS_TYPE = 0
CLASSIFICATION_TYPE = U
NORAD_CAT_ID   = 65304
ELEMENT_SET_NO = 999
REV_AT_EPOCH   = 11
BSTAR          = .26392566E-3
MEAN_MOTION_DOT = .13796E-3
MEAN_MOTION_DDOT = 0

CCSDS_OMM_VERS = 2.0
CREATION_DATE  = 
ORIGINATOR     = 

OBJECT_NAME    = PROGRESS-MS 32
OBJECT_ID      = 2025-204A
CENTER_NAME    = EARTH
REF_FRAME      = TEME
TIME_SYSTEM    = UTC
MEAN_ELEMENT_THEORY = SGP/SGP4

EPOCH          = 2026-02-27T12:14:12.616800
MEAN_MOTION    = 15.48339371
ECCENTRICITY   = .0008329
INCLINATION    = 51.6324
RA_OF_ASC_NODE = 122.6808
ARG_OF_PERICENTER = 139.0697
MEAN_ANOMALY   = 221.0918

EPHEMERIS_TYPE = 0
CLASSIFICATION_TYPE = U
NORAD_CAT_ID   = 65586
ELEMENT_SET_NO = 999
REV_AT_EPOCH   = 55450
BSTAR          = .23882E-3
MEAN_MOTION_DOT = .12441E-3
MEAN_MOTION_DDOT = 0

CCSDS_OMM_VERS = 2.0
CREATION_DATE  = 
ORIGINATOR     = 

OBJECT_NAME    = CYGNUS NG-23
OBJECT_ID      = 2025-208A
CENTER_NAME    = EARTH
REF_FRAME      = TEME
TIME_SYSTEM    = UTC
MEAN_ELEMENT_THEORY = SGP/SGP4

EPOCH          = 2026-02-27T12:14:12.616800
MEAN_MOTION    = 15.48339371
ECCENTRICITY   = .0008329
INCLINATION    = 51.6324
RA_OF_ASC_NODE = 122.6808
ARG_OF_PERICENTER = 139.0697
MEAN_ANOMALY   = 221.0918

EPHEMERIS_TYPE = 0
CLASSIFICATION_TYPE = U
NORAD_CAT_ID   = 65616
ELEMENT_SET_NO = 999
REV_AT_EPOCH   = 55451
BSTAR          = .23882E-3
MEAN_MOTION_DOT = .12441E-3
MEAN_MOTION_DDOT = 0

